NORAD_CAT_ID,OBJECT_NAME,OBJECT_TYPE,EPOCH,MEAN_MOTION,ECCENTRICITY,INCLINATION,RA_OF_ASC_NODE,ARG_OF_PERICENTER,MEAN_ANOMALY,BSTAR,MEAN_MOTION_DOT,MEAN_MOTION_DDOT,TLE_LINE0,TLE_LINE1,TLE_LINE2,SEMIMAJOR_AXIS,PERIOD,APOGEE,PERIGEE,DECAYED
55277.0,STARLINK-5299,PAYLOAD,2023-11-20 12:07:58,14.98333289,0.0002822,69.9999,2.8948,269.6292,90.4543,2.241e-05,1.74e-06,0.0,0 STARLINK-5299,1 55277U 23010J   23324.50554182  .00000174  00000-0  22410-4 0  9991,2 55277  69.9999   2.8948 0002822 269.6292  90.4543 14.98333289 46937,6950.183,96.107,574.009,570.086,0.0
55277.0,STARLINK-5299,PAYLOAD,2023-11-20 20:08:39,14.98332457,0.000278,69.9993,2.0539,284.8634,75.2217,-8.7879e-05,-1.141e-05,0.0,0 STARLINK-5299,1 55277U 23010J   23324.83934659 -.00001141  00000-0 -87879-4 0  9995,2 55277  69.9993   2.0539 0002780 284.8634  75.2217 14.98332457 46981,6950.185,96.107,573.982,570.118,0.0
55277.0,STARLINK-5299,PAYLOAD,2023-11-21 12:09:59,14.9833191,0.0002998,69.9993,0.3702,270.8632,89.2183,5.3738e-06,-2.9e-07,0.0,0 STARLINK-5299,1 55277U 23010J   23325.50694224 -.00000029  00000-0  53738-5 0  9992,2 55277  69.9993   0.3702 0002998 270.8632  89.2183 14.98331910 47080,6950.187,96.107,574.136,569.968,0.0
55277.0,STARLINK-5299,PAYLOAD,2023-11-22 04:11:21,14.98323409,0.0002978,69.9997,358.6867,269.1385,90.9433,-2.5975e-05,-4.03e-06,0.0,0 STARLINK-5299,1 55277U 23010J   23326.17454896 -.00000403  00000-0 -25975-4 0  9993,2 55277  69.9997 358.6867 0002978 269.1385  90.9433 14.98323409 46876,6950.213,96.107,574.148,570.008,0.0
55277.0,STARLINK-5299,PAYLOAD,2023-11-22 12:12:01,14.98325758,0.0002783,69.9997,357.8455,265.45,94.6341,-2.7409e-05,-4.2e-06,0.0,0 STARLINK-5299,1 55277U 23010J   23326.50834870 -.00000420  00000-0 -27409-4 0  9997,2 55277  69.9997 357.8455 0002783 265.4500  94.6341 14.98325758 47231,6950.206,96.107,574.005,570.137,0.0
55277.0,STARLINK-5299,PAYLOAD,2023-11-23 04:13:21,14.98333488,0.0002989,69.9993,356.1618,269.8166,90.265,4.5096e-05,4.45e-06,0.0,0 STARLINK-5299,1 55277U 23010J   23327.17594196  .00000445  00000-0  45096-4 0  9992,2 55277  69.9993 356.1618 0002989 269.8166  90.2650 14.98333488 47025,6950.182,96.107,574.125,569.97,0.0
55277.0,STARLINK-5299,PAYLOAD,2023-11-23 10:37:53,14.98298824,0.0002602,69.9996,355.489,270.1146,89.9715,0.00074588,8.811e-05,0.0,0 STARLINK-5299,1 55277U 23010J   23327.44298608  .00008811  00000-0  74588-3 0  9993,2 55277  69.9996 355.4890 0002602 270.1146  89.9715 14.98298824 47062,6950.289,96.109,573.963,570.346,0.0
55277.0,STARLINK-5299,PAYLOAD,2023-11-23 12:14:01,14.98338605,0.0002833,69.9996,355.3205,268.1493,91.9342,8.8708e-05,9.66e-06,0.0,0 STARLINK-5299,1 55277U 23010J   23327.50973640  .00000966  00000-0  88708-4 0  9999,2 55277  69.9996 355.3205 0002833 268.1493  91.9342 14.98338605 47385,6950.166,96.106,574.0,570.062,0.0
55277.0,STARLINK-5299,PAYLOAD,2023-11-24 04:15:22,14.98324133,0.0002483,70.0004,353.6374,258.2252,101.8628,4.0461e-05,3.9e-06,0.0,0 STARLINK-5299,1 55277U 23010J   23328.17734663  .00000390  00000-0  40461-4 0  9998,2 55277  70.0004 353.6374 0002483 258.2252 101.8628 14.98324133 47176,6950.211,96.107,573.802,570.35,0.0
55277.0,STARLINK-5299,PAYLOAD,2023-11-24 12:16:02,14.98327473,0.0002044,70.0013,352.7946,256.8256,103.2676,9.6273e-05,1.056e-05,0.0,0 STARLINK-5299,1 55277U 23010J   23328.51114411  .00001056  00000-0  96273-4 0  9991,2 55277  70.0013 352.7946 0002044 256.8256 103.2676 14.98327473 47531,6950.201,96.107,573.486,570.645,0.0
55277.0,STARLINK-5299,PAYLOAD,2023-11-25 04:17:23,14.98336566,0.0002216,70.0005,351.1113,254.8123,105.2791,-7.2461e-05,-9.57e-06,0.0,0 STARLINK-5299,1 55277U 23010J   23329.17874084 -.00000957  00000-0 -72461-4 0  9997,2 55277  70.0005 351.1113 0002216 254.8123 105.2791 14.98336566 47323,6950.173,96.107,573.578,570.497,0.0
55277.0,STARLINK-5299,PAYLOAD,2023-11-25 10:41:55,14.98332956,0.0002194,70.0006,350.4378,257.541,102.5503,-0.00011577,-1.474e-05,0.0,0 STARLINK-5299,1 55277U 23010J   23329.44578365 -.00001474  00000-0 -11577-3 0  9995,2 55277  70.0006 350.4378 0002194 257.5410 102.5503 14.98332956 47671,6950.184,96.107,573.574,570.524,0.0
55277.0,STARLINK-5299,PAYLOAD,2023-11-26 10:43:55,14.98336326,0.0002496,70.0001,347.9133,252.9093,107.1793,1.1522e-05,4.5e-07,0.0,0 STARLINK-5299,1 55277U 23010J   23330.44717512  .00000045  00000-0  11522-4 0  9998,2 55277  70.0001 347.9133 0002496 252.9093 107.1793 14.98336326 47517,6950.173,96.107,573.773,570.304,0.0
55277.0,STARLINK-5299,PAYLOAD,2023-11-27 04:21:25,14.98322296,0.0002378,70.0016,346.0646,230.5411,129.5537,-4.0082e-05,-5.71e-06,0.0,0 STARLINK-5299,1 55277U 23010J   23331.18154529 -.00000571  00000-0 -40082-4 0  9992,2 55277  70.0016 346.0646 0002378 230.5411 129.5537 14.98322296 47624,6950.217,96.107,573.734,570.429,0.0
55277.0,STARLINK-5299,PAYLOAD,2023-11-27 10:45:57,14.98327869,0.0002549,70.0001,345.3893,272.2254,87.8613,-3.7366e-06,-1.38e-06,0.0,0 STARLINK-5299,1 55277U 23010J   23331.44858301 -.00000138  00000-0 -37366-5 0  9991,2 55277  70.0001 345.3893 0002549 272.2254  87.8613 14.98327869 47972,6950.199,96.107,573.836,570.293,0.0
55277.0,STARLINK-5299,PAYLOAD,2023-11-28 10:47:58,14.98332335,0.0002292,70.0015,342.8646,262.1239,97.966,-2.379e-05,-3.77e-06,0.0,0 STARLINK-5299,1 55277U 23010J   23332.44997948 -.00000377  00000-0 -23790-4 0  9993,2 55277  70.0015 342.8646 0002292 262.1239  97.9660 14.98332335 47812,6950.186,96.107,573.644,570.458,0.0
55277.0,STARLINK-5299,PAYLOAD,2023-11-29 04:25:28,14.98311894,0.0002675,70.001,341.0156,259.3242,100.7616,-0.00016572,-2.069e-05,0.0,0 STARLINK-5299,1 55277U 23010J   23333.18436189 -.00002069  00000-0 -16572-3 0  9999,2 55277  70.0010 341.0156 0002675 259.3242 100.7616 14.98311894 47924,6950.249,96.108,573.973,570.255,0.0
55277.0,STARLINK-5299,PAYLOAD,2023-11-29 10:50:02,14.98305874,0.0002004,70.001,340.3407,292.4403,67.6543,-0.00019749,-2.447e-05,0.0,0 STARLINK-5299,1 55277U 23010J   23333.45141409 -.00002447  00000-0 -19749-3 0  9996,2 55277  70.0010 340.3407 0002004 292.4403  67.6543 14.98305874 47963,6950.267,96.109,573.525,570.74,0.0
55277.0,STARLINK-5299,PAYLOAD,2023-11-30 02:51:20,14.98331958,0.000242,70.0008,338.6554,266.8215,93.2667,6.05e-05,6.29e-06,0.0,0 STARLINK-5299,1 55277U 23010J   23334.11899053  .00000629  00000-0  60500-4 0  9995,2 55277  70.0008 338.6554 0002420 266.8215  93.2667 14.98331958 48067,6950.187,96.107,573.734,570.37,0.0
55277.0,STARLINK-5299,PAYLOAD,2023-12-01 02:53:21,14.98324669,0.0002531,70.0004,336.1303,268.952,91.1349,0.00030565,3.555e-05,0.0,0 STARLINK-5299,1 55277U 23010J   23335.12038712  .00003555  00000-0  30565-3 0  9992,2 55277  70.0004 336.1303 0002531 268.9520  91.1349 14.98324669 48215,6950.209,96.107,573.833,570.315,0.0
55277.0,STARLINK-5299,PAYLOAD,2023-12-01 10:54:01,14.98327308,0.0002433,70.0005,335.289,261.8026,98.2857,0.00031552,3.673e-05,0.0,0 STARLINK-5299,1 55277U 23010J   23335.45418538  .00003673  00000-0  31552-3 0  9994,2 55277  70.0005 335.2890 0002433 261.8026  98.2857 14.98327308 48575,6950.201,96.107,573.757,570.375,0.0
55277.0,STARLINK-5299,PAYLOAD,2023-12-02 01:19:13,14.98344331,0.0002277,70.0006,333.7745,240.2783,119.815,9.2116e-06,1.7e-07,0.0,0 STARLINK-5299,1 55277U 23010J   23336.05501878  .00000017  00000-0  92116-5 0  9995,2 55277  70.0006 333.7745 0002277 240.2783 119.8150 14.98344331 48352,6950.149,96.106,573.596,570.431,0.0
55277.0,STARLINK-5299,PAYLOAD,2023-12-02 10:57:32,14.97157811,0.0002602,70.0011,332.7682,340.8478,19.2582,-0.013424,-0.00152158,0.0,0 STARLINK-5299,1 55277U 23010J   23336.45662669 -.00152158  00000-0 -13424-1 0  9992,2 55277  70.0011 332.7682 0002602 340.8478  19.2582 14.97157811 48410,6953.82,96.182,577.495,573.876,0.0
55277.0,STARLINK-5299,PAYLOAD,2023-12-02 22:00:00,14.98273652,0.000309,70.001,331.5991,259.592,66.9479,0.005913,0.00071077,0.0,0 STARLINK-5299,1 55277U 23010J   23336.91667824  .00071077  00000-0  59130-2 0  9994,2 55277  70.0010 331.5991 0003090 259.5920  66.9479 14.98273652 48472,6950.367,96.111,574.38,570.084,0.0
55277.0,STARLINK-5299,PAYLOAD,2023-12-03 01:20:30,14.98933361,0.0006921,70.0028,331.2524,196.9971,163.0957,0.0066513,0.00081489,0.0,0 STARLINK-5299,1 55277U 23010J   23337.05590998  .00081489  00000-0  66513-2 0  9998,2 55277  70.0028 331.2524 0006921 196.9971 163.0957 14.98933361 48498,6948.328,96.068,575.002,565.384,0.0
55277.0,STARLINK-5299,PAYLOAD,2023-12-03 14:00:01,14.98334014,0.000309,70.0009,329.9181,265.4415,55.9865,-0.0034545,-0.00041076,0.0,0 STARLINK-5299,1 55277U 23010J   23337.58334491 -.00041076  00000-0 -34545-2 0  9990,2 55277  70.0009 329.9181 0003090 265.4415  55.9865 14.98334014 48575,6950.18,96.107,574.193,569.898,0.0
55277.0,STARLINK-5299,PAYLOAD,2023-12-04 01:21:02,15.00096428,0.0009465,70.0025,328.7242,223.8807,136.1602,0.019283,0.00249674,0.0,0 STARLINK-5299,1 55277U 23010J   23338.05628364  .00249674  00000-0  19283-1 0  9991,2 55277  70.0025 328.7242 0009465 223.8807 136.1602 15.00096428 48640,6944.736,95.994,573.174,560.028,0.0
55277.0,STARLINK-5299,PAYLOAD,2023-12-04 14:00:01,14.98357284,0.0003064,70.0009,327.3968,265.248,48.6001,-0.0035437,-0.00042153,0.0,0 STARLINK-5299,1 55277U 23010J   23338.58334491 -.00042153  00000-0 -35437-2 0  9999,2 55277  70.0009 327.3968 0003064 265.2480  48.6001 14.98357284 48723,6950.109,96.105,574.103,569.844,0.0
55277.0,STARLINK-5299,PAYLOAD,2023-12-04 16:00:01,14.98347253,0.0003042,70.001,327.1866,263.507,139.7811,-0.002311,-0.00027572,0.0,0 STARLINK-5299,1 55277U 23010J   23338.66668981 -.00027572  00000-0 -23110-2 0  9995,2 55277  70.0010 327.1866 0003042 263.5070 139.7811 14.98347253  5754,6950.14,96.106,574.119,569.89,0.0
55277.0,STARLINK-5299,PAYLOAD,2023-12-04 22:00:00,14.98325076,0.0003099,70.0012,326.5565,259.5321,51.8162,0.0045585,0.00054718,0.0,0 STARLINK-5299,1 55277U 23010J   23338.91667824  .00054718  00000-0  45585-2 0  9998,2 55277  70.0012 326.5565 0003099 259.5321  51.8162 14.98325076  5786,6950.208,96.107,574.227,569.919,0.0
